STARLINK-36658          
1 67846U 26033AB  26152.40303961  .00019561  00000+0  71809-3 0  9996
2 67846  43.0032 154.5688 0002312 283.0004  77.0590 15.27596023 17474
STARLINK-36618          
1 67847U 26033AC  26152.02647605  .00017980  00000+0  64433-3 0  9999
2 67847  42.9995 141.8495 0001298 272.6385  87.4319 15.28434315 17586
STARLINK-36660          
1 67848U 26033AD  26152.00815999  .00022407  00000+0  82094-3 0  9994
2 67848  43.0008 156.7619 0003002 301.6045  58.4514 15.27592077 17414
STARLINK-36602          
1 67849U 26033AE  26152.41460613  .00016083  00000+0  59247-3 0  9996
2 67849  43.0002 154.6537 0001654 269.0592  91.0070 15.27592491 17476
STARLINK-36840          
1 67850U 26034A   26153.09986208  .00021116  00000+0  72251-3 0  9990
2 67850  53.1591 171.8787 0000947 336.0176  24.0781 15.30223731 16968
STARLINK-36348          
1 67851U 26034B   26151.45444075 -.00000249  00000+0  37124-5 0  9997
2 67851  53.1573 180.0995 0000763  95.0063 265.1025 15.30214123 16701
STARLINK-36276          
1 67852U 26034C   26152.23506066  .00016460  00000+0  56665-3 0  9994
2 67852  53.1565 176.4451 0001061  89.6183 270.4939 15.30197947 16823
STARLINK-36785          
1 67853U 26034D   26153.19261603  .00029002  00000+0  98671-3 0  9995
2 67853  53.1573 171.7234 0001029  40.2154 319.8923 15.30225975 16975
STARLINK-36608          
1 67854U 26034E   26152.06854581  .00022723  00000+0  77673-3 0  9996
2 67854  53.1579 176.7937 0001624  86.3866 273.7320 15.30210430 16798
STARLINK-36838          
1 67855U 26034F   26152.06538228  .00022601  00000+0  77265-3 0  9996
2 67855  53.1587 176.7761 0001469  75.3977 284.7187 15.30209702 16806
STARLINK-36843          
1 67856U 26034G   26153.10092382  .00017917  00000+0  61555-3 0  9998
2 67856  53.1581 171.8799 0001815  50.8996 309.2166 15.30201996 16966
STARLINK-36828          
1 67857U 26034H   26152.58156328  .00028434  00000+0  96811-3 0  9990
2 67857  53.1585 174.3034 0001187  91.7793 268.3344 15.30212121 16888
STARLINK-36837          
1 67858U 26034J   26152.09270384  .00023142  00000+0  69410-3 0  9992
2 67858  53.1571 174.8338 0001312  94.2675 265.8477 15.34392745 16832
STARLINK-36393          
1 67859U 26034K   26153.19152823  .00028449  00000+0  92408-3 0  9990
2 67859  53.1578 171.0040 0001129  39.7414 320.3670 15.31732964 16986
STARLINK-35873          
1 67860U 26034L   26152.56690978  .00019990  00000+0  68635-3 0  9996
2 67860  53.1561 174.9337 0001286  87.6823 272.4325 15.30146158 16900
STARLINK-36325          
1 67861U 26034M   26152.04122302  .00017062  00000+0  58679-3 0  9996
2 67861  53.1567 177.3401 0001686  51.6384 308.4768 15.30204071 16790
STARLINK-36332          
1 67862U 26034N   26152.23400593  .00015949  00000+0  54939-3 0  9996
2 67862  53.1568 176.4063 0001607  81.2175 278.9007 15.30204881 16826
STARLINK-36835          
1 67863U 26034P   26152.10020991  .00022013  00000+0  75299-3 0  9995
2 67863  53.1563 176.9917 0001643  94.6852 265.4337 15.30207416 16807
STARLINK-36831          
1 67864U 26034Q   26152.09703590  .00021290  00000+0  72867-3 0  9991
2 67864  53.1568 176.9713 0001454  96.6015 263.5151 15.30210003 16809
STARLINK-36738          
1 67865U 26034R   26152.54791323  .00017829  00000+0  61201-3 0  9996
2 67865  53.1564 174.8091 0000422  59.9102 300.1941 15.30233725 16873
STARLINK-36780          
1 67866U 26034S   26152.41411397  .00023744  00000+0  81108-3 0  9994
2 67866  53.1570 175.3964 0001005  54.6437 305.4658 15.30205701 16851
STARLINK-36761          
1 67867U 26034T   26153.19472679  .00030976  00000+0  10527-2 0  9992
2 67867  53.1573 171.7333 0001084  33.6826 326.4244 15.30228514 16975
STARLINK-36762          
1 67868U 26034U   26153.19050163  .00018565  00000+0  63709-3 0  9994
2 67868  53.1568 171.7033 0001789 107.5939 252.5257 15.30213691 16978
STARLINK-36779          
1 67869U 26034V   26151.38041741  .00027710  00000+0  82838-3 0  9992
2 67869  53.1580 178.1943 0001403  56.2839 303.8297 15.34394361 16710
STARLINK-36770          
1 67870U 26034W   26152.46465260  .00018797  00000+0  64495-3 0  9994
2 67870  53.1582 174.9991 0000835  41.1297 318.9767 15.30210506 16869
STARLINK-36769          
1 67871U 26034X   26152.07065518  .00021331  00000+0  73008-3 0  9992
2 67871  53.1582 176.8030 0001414  76.0936 284.0222 15.30208372 16807
STARLINK-36786          
1 67872U 26034Y   26152.45053279  .00027506  00000+0  89431-3 0  9993
2 67872  53.1595 174.9065 0000354  59.8409 300.2628 15.31720214 16867
STARLINK-36783          
1 67873U 26034Z   26152.09480837  .00022663  00000+0  67978-3 0  9999
2 67873  53.1577 174.8270 0001251 101.4569 258.6575 15.34402932 16834
STARLINK-36730          
1 67874U 26034AA  26152.09061858  .00022346  00000+0  67071-3 0  9990
2 67874  53.1569 174.8014 0001287 100.4116 259.7032 15.34391023 16836
STARLINK-36727          
1 67875U 26034AB  26152.48311034  .00025866  00000+0  84174-3 0  9991
2 67875  53.1564 174.3977 0001228  87.5370 272.5772 15.31725160 16875
