OBJECT_NAME,OBJECT_ID,EPOCH,MEAN_MOTION,ECCENTRICITY,INCLINATION,RA_OF_ASC_NODE,ARG_OF_PERICENTER,MEAN_ANOMALY,EPHEMERIS_TYPE,CLASSIFICATION_TYPE,NORAD_CAT_ID,ELEMENT_SET_NO,REV_AT_EPOCH,BSTAR,MEAN_MOTION_DOT,MEAN_MOTION_DDOT
STARLINK-36658,2026-033AB,2026-06-01T09:40:22.622304,15.27596023,.00023125,43.0032,154.5688,283.0004,77.0590,0,U,67846,999,1747,.71809418E-3,.19561E-3,0
STARLINK-36618,2026-033AC,2026-06-01T00:38:07.530720,15.28434315,.00012983,42.9995,141.8495,272.6385,87.4319,0,U,67847,999,1758,.64432828E-3,.1798E-3,0
STARLINK-36660,2026-033AD,2026-06-01T00:11:45.023136,15.27592077,.00030025,43.0008,156.7619,301.6045,58.4514,0,U,67848,999,1741,.82094434E-3,.22407E-3,0
STARLINK-36602,2026-033AE,2026-06-01T09:57:01.969632,15.27592491,.00016543,43.0002,154.6537,269.0592,91.0070,0,U,67849,999,1747,.59246896E-3,.16083E-3,0
STARLINK-36840,2026-034A,2026-06-02T02:23:48.083712,15.30223731,.00009475,53.1591,171.8787,336.0176,24.0781,0,U,67850,999,1696,.72250896E-3,.21116E-3,0
STARLINK-36348,2026-034B,2026-05-31T10:54:23.680800,15.30214123,.00007637,53.1573,180.0995,95.0063,265.1025,0,U,67851,999,1670,.3712446E-5,-.249E-5,0
STARLINK-36276,2026-034C,2026-06-01T05:38:29.241024,15.30197947,.00010618,53.1565,176.4451,89.6183,270.4939,0,U,67852,999,1682,.56664897E-3,.1646E-3,0
STARLINK-36785,2026-034D,2026-06-02T04:37:22.024992,15.30225975,.00010295,53.1573,171.7234,40.2154,319.8923,0,U,67853,999,1697,.98671358E-3,.29002E-3,0
STARLINK-36608,2026-034E,2026-06-01T01:38:42.357984,15.30210430,.0001624,53.1579,176.7937,86.3866,273.7320,0,U,67854,999,1679,.77672933E-3,.22723E-3,0
STARLINK-36838,2026-034F,2026-06-01T01:34:09.028992,15.30209702,.0001469,53.1587,176.7761,75.3977,284.7187,0,U,67855,999,1680,.77265284E-3,.22601E-3,0
STARLINK-36843,2026-034G,2026-06-02T02:25:19.818048,15.30201996,.00018158,53.1581,171.8799,50.8996,309.2166,0,U,67856,999,1696,.61555083E-3,.17917E-3,0
STARLINK-36828,2026-034H,2026-06-01T13:57:27.067392,15.30212121,.00011876,53.1585,174.3034,91.7793,268.3344,0,U,67857,999,1688,.96811211E-3,.28434E-3,0
STARLINK-36837,2026-034J,2026-06-01T02:13:29.611776,15.34392745,.00013125,53.1571,174.8338,94.2675,265.8477,0,U,67858,999,1683,.69409962E-3,.23142E-3,0
STARLINK-36393,2026-034K,2026-06-02T04:35:48.039072,15.31732964,.00011292,53.1578,171.0040,39.7414,320.3670,0,U,67859,999,1698,.9240842E-3,.28449E-3,0
STARLINK-35873,2026-034L,2026-06-01T13:36:21.004992,15.30146158,.00012861,53.1561,174.9337,87.6823,272.4325,0,U,67860,999,1690,.68635147E-3,.1999E-3,0
STARLINK-36325,2026-034M,2026-06-01T00:59:21.668928,15.30204071,.00016867,53.1567,177.3401,51.6384,308.4768,0,U,67861,999,1679,.58678955E-3,.17062E-3,0
STARLINK-36332,2026-034N,2026-06-01T05:36:58.112352,15.30204881,.00016075,53.1568,176.4063,81.2175,278.9007,0,U,67862,999,1682,.54938622E-3,.15949E-3,0
STARLINK-36835,2026-034P,2026-06-01T02:24:18.136224,15.30207416,.00016439,53.1563,176.9917,94.6852,265.4337,0,U,67863,999,1680,.75298865E-3,.22013E-3,0
STARLINK-36831,2026-034Q,2026-06-01T02:19:43.901760,15.30210003,.00014542,53.1568,176.9713,96.6015,263.5151,0,U,67864,999,1680,.72866992E-3,.2129E-3,0
STARLINK-36738,2026-034R,2026-06-01T13:08:59.703072,15.30233725,.00004226,53.1564,174.8091,59.9102,300.1941,0,U,67865,999,1687,.61200862E-3,.17829E-3,0
STARLINK-36780,2026-034S,2026-06-01T09:56:19.447008,15.30205701,.00010055,53.1570,175.3964,54.6437,305.4658,0,U,67866,999,1685,.8110763E-3,.23744E-3,0
STARLINK-36761,2026-034T,2026-06-02T04:40:24.394656,15.30228514,.00010845,53.1573,171.7333,33.6826,326.4244,0,U,67867,999,1697,.10526951E-2,.30976E-3,0
STARLINK-36762,2026-034U,2026-06-02T04:34:19.340832,15.30213691,.00017894,53.1568,171.7033,107.5939,252.5257,0,U,67868,999,1697,.63709293E-3,.18565E-3,0
STARLINK-36779,2026-034V,2026-05-31T09:07:48.064224,15.34394361,.0001403,53.1580,178.1943,56.2839,303.8297,0,U,67869,999,1671,.82837682E-3,.2771E-3,0
STARLINK-36770,2026-034W,2026-06-01T11:09:05.984640,15.30210506,.00008356,53.1582,174.9991,41.1297,318.9767,0,U,67870,999,1686,.64495219E-3,.18797E-3,0
STARLINK-36769,2026-034X,2026-06-01T01:41:44.607552,15.30208372,.00014147,53.1582,176.8030,76.0936,284.0222,0,U,67871,999,1680,.73007746E-3,.21331E-3,0
STARLINK-36786,2026-034Y,2026-06-01T10:48:46.033056,15.31720214,.00003547,53.1595,174.9065,59.8409,300.2628,0,U,67872,999,1686,.89430629E-3,.27506E-3,0
STARLINK-36783,2026-034Z,2026-06-01T02:16:31.443168,15.34402932,.00012517,53.1577,174.8270,101.4569,258.6575,0,U,67873,999,1683,.67978464E-3,.22663E-3,0
STARLINK-36730,2026-034AA,2026-06-01T02:10:29.445312,15.34391023,.00012875,53.1569,174.8014,100.4116,259.7032,0,U,67874,999,1683,.67070895E-3,.22346E-3,0
STARLINK-36727,2026-034AB,2026-06-01T11:35:40.733376,15.31725160,.00012283,53.1564,174.3977,87.5370,272.5772,0,U,67875,999,1687,.84173991E-3,.25866E-3,0
